COSMOS 1743             
1 16719U 86034A   25317.10827503  .00049816  00000+0  87815-3 0  9998
2 16719  82.5377 195.3182 0007284  16.1529 343.9953 15.50178341162147
SL-14 R/B               
1 16792U 86046B   25317.61465702  .00001113  00000+0  12588-3 0  9990
2 16792  82.4831 189.8175 0021697 250.7207 109.1662 14.85443913109175
SL-14 R/B               
1 16882U 86055B   25317.56746645  .00001414  00000+0  16067-3 0  9992
2 16882  82.5217 235.7800 0019072   1.4007 172.0089 14.85486359102124
AJISAI (EGS)            
1 16908U 86061A   25317.66067626 -.00000092  00000+0  37073-4 0  9997
2 16908  50.0085  90.1313 0011189 352.6611  26.3896 12.44514144453551
COSMOS 1812             
1 17295U 87003A   25317.45458088  .00112199  00000+0  93957-3 0  9990
2 17295  82.4886 323.5710 0005089 136.0744 224.0923 15.69593839126054
SL-14 R/B               
1 17567U 87024B   25317.15148381  .00001153  00000+0  12909-3 0  9999
2 17567  82.5302 202.2459 0016861 288.6855  71.2530 14.85982453 70820
COSMOS 1833             
1 17589U 87027A   25317.41020374 -.00000186  00000+0 -73965-4 0  9993
2 17589  70.9148 210.4322 0021247  13.0742 347.0925 14.13019876993885
SL-16 R/B               
1 17590U 87027B   25317.58015404 -.00000035  00000+0  65871-5 0  9991
2 17590  71.0007 161.1628 0007223 290.2577  69.7770 14.17147856998938
SL-14 R/B               
1 18153U 87055B   25317.48787733  .00001260  00000+0  14273-3 0  9996
2 18153  82.4974  98.5544 0021663  40.9675 319.3163 14.85475725 52683
COSMOS 1867             
1 18187U 87060A   25317.60991109  .00000104  00000+0  76593-4 0  9997
2 18187  65.0103 271.7759 0013704 268.2357  91.7158 14.31479333  3325
